STARLINK-2690           
1 48480U 21040BE  21365.85151769 -.00000408  00000+0 -84693-5 0  9998
2 48480  53.0554 224.8326 0002236  71.8587 288.2646 15.06392737 35911
STARLINK-2706           
1 48481U 21040BF  21365.93166724  .00000188  00000+0  31546-4 0  9996
2 48481  53.0554 224.4755 0001801  69.2539 290.8643 15.06390929 35927
STARLINK-2525           
1 48482U 21040BG  21365.92522618 -.00000209  00000+0  49023-5 0  9999
2 48482  53.0546 224.5084 0002116  65.1162 295.0047 15.06404820 35923
STARLINK-2531           
1 48483U 21040BH  21365.92155241 -.00000068  00000+0  14347-4 0  9997
2 48483  53.0546 224.5223 0002014  59.7869 300.3319 15.06388536 35926
STARLINK-2696           
1 48484U 21040BJ  21365.83213893 -.00002855  00000+0 -17276-3 0  9996
2 48484  53.0542 224.9165 0002124  70.7975 289.3244 15.06410347 35913
STARLINK-2500           
1 48485U 21040BK  21365.92891420  .00001799  00000+0  13964-3 0  9999
2 48485  53.0545 224.4899 0002099  69.9392 290.1822 15.06398799 35929
STARLINK-2496           
1 48486U 21040BL  21365.93259978  .00002151  00000+0  16326-3 0  9995
2 48486  53.0538 224.4699 0001829  72.2742 287.8447 15.06401975 35923
STARLINK-2494           
1 48487U 21040BM  21365.93628864  .00001746  00000+0  13610-3 0  9992
2 48487  53.0556 224.4711 0001889  65.8251 294.2935 15.06395509 35938
STARLINK-2063           
1 48553U 21041A   21365.71421504 -.00000488  00000+0 -13814-4 0  9996
2 48553  53.0547 155.4600 0002545  92.7588 267.3692 15.06389443 34754
STARLINK-2139           
1 48554U 21041B   21365.85427431 -.00000640  00000+0 -24063-4 0  9995
2 48554  53.0541 154.8326 0002580  98.6332 261.4949 15.06396297 34775
STARLINK-2145           
1 48555U 21041C   21365.88284153 -.00000125  00000+0  10553-4 0  9997
2 48555  53.0555 164.7044 0002390  91.7832 268.3430 15.06392517 34633
STARLINK-2151           
1 48556U 21041D   21365.87177011 -.00002719  00000+0 -16358-3 0  9991
2 48556  53.0561 164.7473 0002201  88.5900 271.5341 15.06416658 34638
STARLINK-2155           
1 48557U 21041E   21365.81004215 -.00000295  00000+0 -87522-6 0  9992
2 48557  53.0542 155.0355 0002422  95.8182 264.3083 15.06403314 34760
STARLINK-2166           
1 48558U 21041F   21365.87270782 -.00000500  00000+0 -14646-4 0  9997
2 48558  53.0540 154.7487 0002216  92.6764 267.4479 15.06391437 33914
STARLINK-2167           
1 48559U 21041G   21365.84227324 -.00002245  00000+0 -13184-3 0  9992
2 48559  53.0539 154.8742 0002147  95.2125 264.9109 15.06394577 34765
STARLINK-2173           
1 48560U 21041H   21365.60387437  .00046695  11934-4  15520-3 0  9994
2 48560  53.0473 134.7768 0003631  11.2138 348.8968 15.91009601 35930
STARLINK-2186           
1 48561U 21041J   21365.91667824 -.00010905  00000+0 -71418-3 0  9992
2 48561  53.0563 124.5547 0002188 110.2287 358.6059 15.06404178  3573
STARLINK-2187           
1 48562U 21041K   21365.85059791 -.00000353  00000+0 -47286-5 0  9998
2 48562  53.0550 154.8522 0002905  96.9540 263.1780 15.06392287 34772
STARLINK-2188           
1 48563U 21041L   21365.80267610 -.00000518  00000+0 -15888-4 0  9990
2 48563  53.0542 155.0680 0002288  97.5884 262.5365 15.06390427 34769
STARLINK-2190           
1 48564U 21041M   21365.86165145 -.00000031  00000+0  16873-4 0  9991
2 48564  53.0557 154.8045 0002341  92.6904 267.4353 15.06393460 34779
STARLINK-2191           
1 48565U 21041N   21365.79161416 -.00000333  00000+0 -34694-5 0  9999
2 48565  53.0556 155.1201 0002186  97.5885 262.5352 15.06396660 34765
STARLINK-2214           
1 48566U 21041P   21365.88189814 -.00001065  00000+0 -52586-4 0  9994
2 48566  53.0552 164.7068 0002284  89.8306 270.2945 15.06398803 34631
STARLINK-2215           
1 48567U 21041Q   21365.76121132  .00001244  00000+0  10242-3 0  9990
2 48567  53.0543 165.2374 0002283  93.7007 266.4243 15.06395606 34613
STARLINK-2217           
1 48568U 21041R   21365.83952694 -.00000624  00000+0 -22937-4 0  9992
2 48568  53.0556 154.8842 0002247 102.8306 257.2934 15.06403002 34767
STARLINK-2219           
1 48569U 21041S   21365.86533703 -.00000114  00000+0  11280-4 0  9994
2 48569  53.0544 154.7892 0002262  96.1540 263.9707 15.06401993 34771
STARLINK-2220           
1 48570U 21041T   21365.85335556 -.00000332  00000+0 -33591-5 0  9994
2 48570  53.0527 164.8252 0002423  88.3165 271.8101 15.06398447 34620
STARLINK-2221           
1 48571U 21041U   21365.86072223  .00001423  00000+0  11443-3 0  9995
2 48571  53.0557 164.8076 0002306  90.5177 269.6077 15.06399854 34637
STARLINK-2222           
1 48572U 21041V   21365.85703655 -.00000892  00000+0 -40968-4 0  9991
2 48572  53.0551 164.8095 0002291  97.7064 262.4185 15.06403884 34630
STARLINK-2224           
1 48573U 21041W   21365.83584592  .00000213  00000+0  33213-4 0  9997
2 48573  53.0522 154.9044 0002212  88.9775 271.1467 15.06395372 34763
STARLINK-2225           
1 48574U 21041X   21365.86346504 -.00001088  00000+0 -54185-4 0  9994
2 48574  53.0481 124.8087 0001674 102.7603 257.3573 15.06393613 35195
STARLINK-2227           
1 48575U 21041Y   21365.91667824 -.00026869  00000+0 -17914-2 0  9993
2 48575  53.0588 114.5192 0002044  40.7191 283.0924 15.06405881  3611
STARLINK-2228           
1 48576U 21041Z   21365.91667824 -.00002286  00000+0 -13459-3 0  9992
2 48576  53.0542 129.4595 0002522  43.9164 112.2920 15.06400443  3573
STARLINK-2231           
1 48577U 21041AA  21365.69577968 -.00000671  00000+0 -26119-4 0  9991
2 48577  53.0537 155.5385 0002318  96.1560 263.9693 15.06393194 34746
STARLINK-2232           
1 48578U 21041AB  21365.80910352 -.00000258  00000+0  16212-5 0  9997
2 48578  53.0559 155.0295 0002410  90.6792 269.4473 15.06392697 34761
STARLINK-2233           
1 48579U 21041AC  21365.81741531 -.00000479  00000+0 -13222-4 0  9993
2 48579  53.0559 155.0007 0002117  96.1629 263.9601 15.06396201 34764
STARLINK-2234           
1 48580U 21041AD  21365.91667824 -.00011593  00000+0 -76059-3 0  9993
2 48580  53.0541 129.5505 0002397 106.2437 255.1110 15.06397897  3582
STARLINK-2235           
1 48581U 21041AE  21365.81047475  .00000651  00000+0  62627-4 0  9995
2 48581  53.0639 119.9802 0001232  94.0130 266.1000 15.06395984 35260
STARLINK-2236           
1 48582U 21041AF  21365.91667824 -.00021057  00000+0 -13985-2 0  9999
2 48582  53.0523 119.5420 0001396  78.4587 317.8712 15.06411715  3583
STARLINK-2237           
1 48583U 21041AG  21365.86440796 -.00000788  00000+0 -33991-4 0  9990
2 48583  53.0548 164.7924 0002483  89.1656 270.9618 15.06402532 34637
STARLINK-2238           
1 48584U 21041AH  21365.83861221 -.00000937  00000+0 -44003-4 0  9990
2 48584  53.0559 164.8980 0002300  89.5045 270.6207 15.06390999 34620
STARLINK-2240           
1 48585U 21041AJ  21365.84966250  .00000999  00000+0  85963-4 0  9996
2 48585  53.0550 164.8511 0002037  89.3462 270.7760 15.06401128 34622
STARLINK-2241           
1 48586U 21041AK  21365.70960888 -.00000118  00000+0  10997-4 0  9992
2 48586  53.0549 165.4773 0002377  88.2292 271.8969 15.06394910 34605
STARLINK-2242           
1 48587U 21041AL  21365.84873506  .00001549  00000+0  12287-3 0  9999
2 48587  53.0559 164.8516 0002263  93.1988 266.9259 15.06408563 34625
STARLINK-2244           
1 48588U 21041AM  21365.69208505 -.00000433  00000+0 -10144-4 0  9998
2 48588  53.0533 155.5646 0002268  86.7413 273.3836 15.06407230 34741
STARLINK-2245           
1 48589U 21041AN  21365.82110344 -.00000202  00000+0  53710-5 0  9997
2 48589  53.0542 154.9783 0002509  97.5589 262.5685 15.06394653 34767
STARLINK-2246           
1 48590U 21041AP  21365.71329163 -.00000810  00000+0 -35458-4 0  9992
2 48590  53.0549 165.4586 0002195  96.2146 263.9093 15.06392716 34609
STARLINK-2248           
1 48591U 21041AQ  21365.80541096 -.00000147  00000+0  90722-5 0  9992
2 48591  53.0594 154.9744 0002339  93.1507 266.9750 15.06404225 35665
STARLINK-2249           
1 48592U 21041AR  21365.87915237 -.00002356  00000+0 -13917-3 0  9996
2 48592  53.0562 164.7260 0002612 102.9741 257.1540 15.06422556 34638
STARLINK-2250           
1 48593U 21041AS  21365.82018841  .00000369  00000+0  43718-4 0  9990
2 48593  53.0558 164.9820 0002359  89.9626 270.1633 15.06400091 34629
STARLINK-2251           
1 48594U 21041AT  21365.91667824 -.00043859  00000+0 -30083-2 0  9994
2 48594  53.0530 134.0911 0001830 105.7758 178.4308 15.05596394  3575
STARLINK-2252           
1 48595U 21041AU  21365.86811225  .00001177  00000+0  97890-4 0  9991
2 48595  53.0552 164.7687 0002190  94.2309 265.8930 15.06407098 35901
STARLINK-2253           
1 48596U 21041AV  21365.82387918  .00000351  00000+0  42458-4 0  9998
2 48596  53.0549 164.9647 0002540  81.5363 278.5914 15.06403668 35085
STARLINK-2255           
1 48597U 21041AW  21365.83124039 -.00000118  00000+0  11012-4 0  9997
2 48597  53.0558 164.9404 0002331  93.9843 266.1413 15.06399825 35890
STARLINK-2256           
1 48598U 21041AX  21365.83492705  .00001411  00000+0  11359-3 0  9995
2 48598  53.0535 164.9166 0002046  94.1018 266.0205 15.06410398 35089
STARLINK-2274           
1 48599U 21041AY  21365.79483649  .00000432  00000+0  47912-4 0  9995
2 48599  53.0552 140.0828 0002141 101.2362 258.8868 15.06394067 36244
STARLINK-2275           
1 48600U 21041AZ  21365.83214711 -.00000744  00000+0 -30966-4 0  9994
2 48600  53.0540 154.9151 0003049 101.9926 258.1405 15.06407880 36033
STARLINK-2713           
1 48602U 21041BB  21365.76166155  .00000609  00000+0  59768-4 0  9995
2 48602  53.0519 140.2529 0001811  96.6814 263.4381 15.06399667 36225
STARLINK-2714           
1 48603U 21041BC  21365.80725932 -.00001559  00000+0 -85818-4 0  9997
2 48603  53.0535 135.0393 0002101 100.5738 259.5487 15.06387968 36312
STARLINK-2757           
1 48604U 21041BD  21365.87547504 -.00000805  00000+0 -35165-4 0  9995
2 48604  53.0549 164.7318 0002229  90.6658 269.4587 15.06392066 35905
